NORAD_CAT_ID,OBJECT_NAME,OBJECT_TYPE,EPOCH,MEAN_MOTION,ECCENTRICITY,INCLINATION,RA_OF_ASC_NODE,ARG_OF_PERICENTER,MEAN_ANOMALY,BSTAR,MEAN_MOTION_DOT,MEAN_MOTION_DDOT,TLE_LINE0,TLE_LINE1,TLE_LINE2,SEMIMAJOR_AXIS,PERIOD,APOGEE,PERIGEE,DECAYED
53611.0,STARLINK-4650,PAYLOAD,2024-07-05 21:35:28,15.12112034,0.000117,53.219,95.86,90.8363,269.2765,-1.441e-05,-5.48e-06,0.0,0 STARLINK-4650,1 53611U 22104Z   24187.89964001 -.00000548  00000-0 -14410-4 0  9997,2 53611  53.2190  95.8600 0001170  90.8363 269.2765 15.12112034103465,6907.897,95.231,530.57,528.954,0.0
53611.0,STARLINK-4650,PAYLOAD,2024-07-06 00:45:50,15.12114033,0.0001246,53.2195,95.2628,94.6321,265.4815,-5.718e-06,-3.97e-06,0.0,0 STARLINK-4650,1 53611U 22104Z   24188.03183119 -.00000397  00000-0 -57180-5 0  9991,2 53611  53.2195  95.2628 0001246  94.6321 265.4815 15.12114033102794,6907.891,95.231,530.617,528.895,0.0
53611.0,STARLINK-4650,PAYLOAD,2024-07-06 10:16:54,15.12111707,0.0001109,53.2185,93.4729,89.2189,270.8932,-3.3554e-05,-8.82e-06,0.0,0 STARLINK-4650,1 53611U 22104Z   24188.42841199 -.00000882  00000-0 -33554-4 0  9990,2 53611  53.2185  93.4729 0001109  89.2189 270.8932 15.12111707103544,6907.898,95.231,530.529,528.997,0.0
53611.0,STARLINK-4650,PAYLOAD,2024-07-06 21:23:09,15.12110222,0.0001158,53.2186,91.3866,94.0867,266.0259,-1.7573e-05,-6.03e-06,0.0,0 STARLINK-4650,1 53611U 22104Z   24188.89108750 -.00000603  00000-0 -17573-4 0  9994,2 53611  53.2186  91.3866 0001158  94.0867 266.0259 15.12110222103613,6907.903,95.231,530.568,528.968,0.0
53611.0,STARLINK-4650,PAYLOAD,2024-07-07 03:43:52,15.12120952,0.0001243,53.2188,90.1942,94.4225,265.6911,-6.4604e-05,-1.423e-05,0.0,0 STARLINK-4650,1 53611U 22104Z   24189.15546796 -.00001423  00000-0 -64604-4 0  9998,2 53611  53.2188  90.1942 0001243  94.4225 265.6911 15.12120952102962,6907.87,95.23,530.594,528.876,0.0
53611.0,STARLINK-4650,PAYLOAD,2024-07-07 22:46:01,15.12110996,0.0001214,53.2185,86.6159,95.0398,265.0734,1.8892e-05,3.2e-07,0.0,0 STARLINK-4650,1 53611U 22104Z   24189.94862856  .00000032  00000-0  18892-4 0  9994,2 53611  53.2185  86.6159 0001214  95.0398 265.0734 15.12110996103083,6907.9,95.231,530.604,528.927,0.0
53611.0,STARLINK-4650,PAYLOAD,2024-07-08 22:33:42,15.12112944,0.0001253,53.2189,82.1428,92.3527,267.7611,1.5785e-05,-2.2e-07,0.0,0 STARLINK-4650,1 53611U 22104Z   24190.94007469 -.00000022  00000-0  15785-4 0  9995,2 53611  53.2189  82.1428 0001253  92.3527 267.7611 15.12112944103925,6907.894,95.231,530.625,528.894,0.0
53611.0,STARLINK-4650,PAYLOAD,2024-07-09 01:44:03,15.12115964,0.0001186,53.2184,81.5457,85.7326,274.3803,-4.7246e-05,-1.12e-05,0.0,0 STARLINK-4650,1 53611U 22104Z   24191.07226801 -.00001120  00000-0 -47246-4 0  9991,2 53611  53.2184  81.5457 0001186  85.7326 274.3803 15.12115964103251,6907.885,95.231,530.569,528.931,0.0
53611.0,STARLINK-4650,PAYLOAD,2024-07-09 09:39:57,15.12111426,0.0001162,53.2184,80.0545,88.6897,271.423,-2.9864e-05,-8.17e-06,0.0,0 STARLINK-4650,1 53611U 22104Z   24191.40275250 -.00000817  00000-0 -29864-4 0  9998,2 53611  53.2184  80.0545 0001162  88.6897 271.4230 15.12111426103994,6907.899,95.231,530.567,528.961,0.0
53611.0,STARLINK-4650,PAYLOAD,2024-07-09 22:21:23,15.12113142,0.0001128,53.2182,77.6666,83.903,276.2092,-7.6485e-06,-4.31e-06,0.0,0 STARLINK-4650,1 53611U 22104Z   24191.93152258 -.00000431  00000-0 -76485-5 0  9992,2 53611  53.2182  77.6666 0001128  83.9030 276.2092 15.12113142104073,6907.894,95.231,530.538,528.98,0.0
53611.0,STARLINK-4650,PAYLOAD,2024-07-10 09:27:38,15.12115466,0.0001321,53.2193,75.5805,81.1805,278.9338,7.755e-06,-1.62e-06,0.0,0 STARLINK-4650,1 53611U 22104Z   24192.39419639 -.00000162  00000-0  77550-5 0  9996,2 53611  53.2193  75.5805 0001321  81.1805 278.9338 15.12115466103456,6907.887,95.231,530.664,528.839,0.0
53611.0,STARLINK-4650,PAYLOAD,2024-07-10 22:09:04,15.12117099,0.0001025,53.2181,73.1954,88.5618,271.5493,3.6056e-05,3.31e-06,0.0,0 STARLINK-4650,1 53611U 22104Z   24192.92296399  .00000331  00000-0  36056-4 0  9993,2 53611  53.2181  73.1954 0001025  88.5618 271.5493 15.12117099104227,6907.882,95.231,530.455,529.039,0.0
53611.0,STARLINK-4650,PAYLOAD,2024-07-11 15:36:02,15.12102262,0.0001056,53.2179,69.9137,89.4274,270.684,0.00017396,2.734e-05,0.0,0 STARLINK-4650,1 53611U 22104Z   24193.65002848  .00002734  00000-0  17396-3 0  9992,2 53611  53.2179  69.9137 0001056  89.4274 270.6840 15.12102262103649,6907.927,95.232,530.521,529.062,0.0
53611.0,STARLINK-4650,PAYLOAD,2024-07-12 01:07:06,15.12118834,9.96e-05,53.2183,68.1259,86.6449,273.4659,-2.8253e-06,-3.46e-06,0.0,0 STARLINK-4650,1 53611U 22104Z   24194.04660337 -.00000346  00000-0 -28253-5 0  9994,2 53611  53.2183  68.1259 0000996  86.6449 273.4659 15.12118834103703,6907.876,95.231,530.429,529.053,0.0
53611.0,STARLINK-4650,PAYLOAD,2024-07-12 09:03:00,15.12116635,0.0001007,53.2185,66.6347,86.6077,273.5032,7.0447e-06,-1.74e-06,0.0,0 STARLINK-4650,1 53611U 22104Z   24194.37708599 -.00000174  00000-0  70447-5 0  9993,2 53611  53.2185  66.6347 0001007  86.6077 273.5032 15.12116635104442,6907.883,95.231,530.444,529.052,0.0
53611.0,STARLINK-4650,PAYLOAD,2024-07-12 21:44:25,15.1211956,9.43e-05,53.218,64.2487,85.9676,274.1425,1.8626e-05,2.7e-07,0.0,0 STARLINK-4650,1 53611U 22104Z   24194.90585389  .00000027  00000-0  18626-4 0  9998,2 53611  53.2180  64.2487 0000943  85.9676 274.1425 15.12119560104523,6907.874,95.231,530.391,529.088,0.0
53611.0,STARLINK-4650,PAYLOAD,2024-07-13 08:50:40,15.12116806,9.95e-05,53.218,62.161,86.0771,274.0336,1.051e-05,-1.14e-06,0.0,0 STARLINK-4650,1 53611U 22104Z   24195.36852992 -.00000114  00000-0  10510-4 0  9998,2 53611  53.2180  62.1610 0000995  86.0771 274.0336 15.12116806103904,6907.883,95.231,530.435,529.06,0.0
53611.0,STARLINK-4650,PAYLOAD,2024-07-13 21:32:06,15.1211476,9.79e-05,53.2177,59.7751,86.4381,273.6724,1.9929e-06,-2.62e-06,0.0,0 STARLINK-4650,1 53611U 22104Z   24195.89730229 -.00000262  00000-0  19929-5 0  9992,2 53611  53.2177  59.7751 0000979  86.4381 273.6724 15.12114760104679,6907.889,95.231,530.43,529.078,0.0
53611.0,STARLINK-4650,PAYLOAD,2024-07-14 00:42:28,15.12115076,9.77e-05,53.2179,59.1786,86.3616,273.7489,2.4381e-06,-2.55e-06,0.0,0 STARLINK-4650,1 53611U 22104Z   24196.02949489 -.00000255  00000-0  24381-5 0  9998,2 53611  53.2179  59.1786 0000977  86.3616 273.7489 15.12115076104693,6907.888,95.231,530.428,529.078,0.0
53611.0,STARLINK-4650,PAYLOAD,2024-07-14 21:19:47,15.12121379,0.0001067,53.2189,55.301,93.5585,266.5531,2.5376e-05,1.45e-06,0.0,0 STARLINK-4650,1 53611U 22104Z   24196.88874182  .00000145  00000-0  25376-4 0  9990,2 53611  53.2189  55.3010 0001067  93.5585 266.5531 15.12121379104138,6907.869,95.23,530.471,528.997,0.0
53611.0,STARLINK-4650,PAYLOAD,2024-07-15 21:07:28,15.12124958,0.0001147,53.2185,50.8279,93.1759,266.9365,-0.00015571,-3.01e-05,0.0,0 STARLINK-4650,1 53611U 22104Z   24197.88019112 -.00003010  00000-0 -15571-3 0  9996,2 53611  53.2185  50.8279 0001147  93.1759 266.9365 15.12124958104280,6907.858,95.23,530.515,528.93,0.0
53611.0,STARLINK-4650,PAYLOAD,2024-07-16 19:19:58,15.12117341,0.0001037,53.2187,46.6529,92.0595,268.0517,9.0497e-06,-1.4e-06,0.0,0 STARLINK-4650,1 53611U 22104Z   24198.80553864 -.00000140  00000-0  90497-5 0  9998,2 53611  53.2187  46.6529 0001037  92.0595 268.0517 15.12117341105110,6907.881,95.231,530.462,529.03,0.0
53611.0,STARLINK-4650,PAYLOAD,2024-07-17 06:26:14,15.12106602,9.53e-05,53.218,44.5633,83.8407,276.2695,-2.2136e-05,-6.83e-06,0.0,0 STARLINK-4650,1 53611U 22104Z   24199.26822160 -.00000683  00000-0 -22136-4 0  9994,2 53611  53.2180  44.5633 0000953  83.8407 276.2695 15.12106602104498,6907.914,95.231,530.437,529.12,0.0
53611.0,STARLINK-4650,PAYLOAD,2024-07-17 20:42:50,15.1211737,9.81e-05,53.2184,41.8794,84.1554,275.9552,2.3798e-05,1.17e-06,0.0,0 STARLINK-4650,1 53611U 22104Z   24199.86308263  .00000117  00000-0  23798-4 0  9998,2 53611  53.2184  41.8794 0000981  84.1554 275.9552 15.12117370104580,6907.881,95.231,530.424,529.068,0.0
53611.0,STARLINK-4650,PAYLOAD,2024-07-18 06:13:54,15.1211947,0.0001027,53.2192,40.092,88.4585,271.6527,1.1215e-05,-1.02e-06,0.0,0 STARLINK-4650,1 53611U 22104Z   24200.25965946 -.00000102  00000-0  11215-4 0  9997,2 53611  53.2192  40.0920 0001027  88.4585 271.6527 15.12119470105336,6907.874,95.231,530.449,529.03,0.0
53611.0,STARLINK-4650,PAYLOAD,2024-07-18 20:30:31,15.12115853,0.0001074,53.2195,37.408,78.1121,281.9993,9.5364e-05,1.365e-05,0.0,0 STARLINK-4650,1 53611U 22104Z   24200.85452770  .00001365  00000-0  95364-4 0  9997,2 53611  53.2195  37.4080 0001074  78.1121 281.9993 15.12115853105422,6907.885,95.231,530.492,529.009,0.0
53611.0,STARLINK-4650,PAYLOAD,2024-07-18 23:40:52,15.12112993,0.0001126,53.2197,36.812,84.0773,276.0349,7.262e-05,9.68e-06,0.0,0 STARLINK-4650,1 53611U 22104Z   24200.98672326  .00000968  00000-0  72620-4 0  9990,2 53611  53.2197  36.8120 0001126  84.0773 276.0349 15.12112993104756,6907.894,95.231,530.537,528.981,0.0
53611.0,STARLINK-4650,PAYLOAD,2024-07-19 06:01:36,15.12110013,0.0001303,53.2203,35.6183,72.9758,287.1378,4.0873e-05,4.15e-06,0.0,0 STARLINK-4650,1 53611U 22104Z   24201.25111346  .00000415  00000-0  40873-4 0  9993,2 53611  53.2203  35.6183 0001303  72.9758 287.1378 15.12110013105483,6907.903,95.231,530.668,528.868,0.0
53611.0,STARLINK-4650,PAYLOAD,2024-07-19 20:18:12,15.12120147,0.0001187,53.2202,32.9345,73.2443,286.8681,1.5415e-05,-2.9e-07,0.0,0 STARLINK-4650,1 53611U 22104Z   24201.84597572 -.00000029  00000-0  15415-4 0  9993,2 53611  53.2202  32.9345 0001187  73.2443 286.8681 15.12120147105579,6907.872,95.231,530.557,528.917,0.0
53611.0,STARLINK-4650,PAYLOAD,2024-07-20 20:05:53,15.12117415,0.0001198,53.2202,28.4605,69.6724,290.4398,1.9051e-06,-2.64e-06,0.0,0 STARLINK-4650,1 53611U 22104Z   24202.83742450 -.00000264  00000-0  19051-5 0  9992,2 53611  53.2202  28.4605 0001198  69.6724 290.4398 15.12117415105032,6907.881,95.231,530.573,528.918,0.0
